OPS 6582 (TRANSIT 5B-5) 
1 00965U 64083D   26066.62290902  .00000111  00000+0  14221-3 0  9996
2 00965  90.0747 202.2132 0040621 212.5943 158.2325 13.57001637 29842
LES-1                   
1 01002U 65008C   26066.65524881  .00000014  00000+0  78567-3 0  9991
2 01002  32.1438 285.2449 0015804 264.4805  95.3890  9.88354881206148
SOLRAD 7B               
1 01291U 65016D   26066.50547941  .00000031  00000+0  61673-4 0  9996
2 01291  70.0773  92.4413 0023871 256.1291 103.7159 13.94962246102521
SECOR 4 (EGRS 4)        
1 01315U 65027B   26066.33554219  .00000105  00000+0  35953-3 0  9995
2 01315  90.2533  13.2377 0032799 105.4202  47.7082 12.92665076873764
TIROS 10                
1 01430U 65051A   26066.29234757  .00000273  00000+0  96064-4 0  9994
2 01430  98.4885 186.1516 0055737  26.1768 334.2219 14.41587488181236
ALOUETTE 2              
1 01804U 65098A   26066.27579866  .00001137  00000+0  36588-3 0  9995
2 01804  79.8055   3.3626 1330824  79.1657 295.5977 12.28236402666760
OV3-3                   
1 02389U 66070A   26066.60878633  .00019082  00000+0  85622-3 0  9997
2 02389  81.3236  60.4742 1024966  60.8613 309.1180 13.42505621585326
SECOR 7 (EGRS 7)        
1 02411U 66077B   26065.57883559 -.00000011  00000+0 -61944-2 0  9992
2 02411  90.3271 276.2548 0011576 157.6293 202.5065  8.59615593868563
ERS 15                  
1 02412U 66077C   26066.56238179  .00000002  00000+0  00000+0 0  9996
2 02412  90.3273 276.0585 0007048 163.9094 196.1982  8.59079414381734
ISIS 1                  
1 03669U 69009A   26066.50726655  .00000233  00000+0  14941-3 0  9993
2 03669  88.4545 155.5467 1707800  93.5639 286.1341 11.30413513348283
SECOR 13 (EGRS 13)      
1 03891U 69037B   26066.61969116 -.00000013  00000+0  50110-4 0  9990
2 03891  99.6655 302.4372 0039985 139.8721 249.3101 13.42972429788128
ATS 5                   
1 04068U 69069A   26066.63784843  .00000090  00000+0  00000+0 0  9998
2 04068   0.2837 212.4283 0006228  69.1561 179.7646  0.99487082 45318
OPS 7613 (P/L 4)        
1 04237U 69082E   26066.14475303  .00000068  00000+0  87953-4 0  9997
2 04237  70.0166 321.8788 0023300 263.7303 208.0150 13.95978677872068
OPS 7613 (P/L 1)        
1 04256U 69082B   26066.57921515  .00000197  00000+0  17266-3 0  9998
2 04256  70.0100 183.2888 0020733 205.4663 154.5424 13.99167284876259
SHINSEI (MS-F2)         
1 05485U 71080A   26066.60971702  .00000020  00000+0  12305-4 0  9996
2 05485  32.0513 182.6533 0639721  87.4179 279.9431 12.74248333536297
PROSPERO (BLACK ARROW)  
1 05580U 71093A   26066.35223559  .00001365  00000+0  28827-3 0  9996
2 05580  82.0408  20.1915 0502431 158.9692 203.2977 14.01385545734263
OPS 7898 (P/L 2)        
1 05680U 71110C   26066.59915297  .00000008  00000+0  60933-4 0  9998
2 05680  69.9889 212.5651 0010339 289.3831  70.6145 13.74749434334258
