[{"OBJECT_NAME":"OPS 6582 (TRANSIT 5B-5)","OBJECT_ID":"1964-083D","EPOCH":"2026-03-07T14:56:59.339328","MEAN_MOTION":13.57001637,"ECCENTRICITY":0.0040621,"INCLINATION":90.0747,"RA_OF_ASC_NODE":202.2132,"ARG_OF_PERICENTER":212.5943,"MEAN_ANOMALY":158.2325,"EPHEMERIS_TYPE":0,"CLASSIFICATION_TYPE":"U","NORAD_CAT_ID":965,"ELEMENT_SET_NO":999,"REV_AT_EPOCH":2984,"BSTAR":0.00014221128,"MEAN_MOTION_DOT":1.11e-6,"MEAN_MOTION_DDOT":0},{"OBJECT_NAME":"LES-1","OBJECT_ID":"1965-008C","EPOCH":"2026-03-07T15:43:33.497184","MEAN_MOTION":9.88354881,"ECCENTRICITY":0.00158044,"INCLINATION":32.1438,"RA_OF_ASC_NODE":285.2449,"ARG_OF_PERICENTER":264.4805,"MEAN_ANOMALY":95.389,"EPHEMERIS_TYPE":0,"CLASSIFICATION_TYPE":"U","NORAD_CAT_ID":1002,"ELEMENT_SET_NO":999,"REV_AT_EPOCH":20614,"BSTAR":0.00078567188,"MEAN_MOTION_DOT":1.4e-7,"MEAN_MOTION_DDOT":0},{"OBJECT_NAME":"SOLRAD 7B","OBJECT_ID":"1965-016D","EPOCH":"2026-03-07T12:07:53.421024","MEAN_MOTION":13.94962246,"ECCENTRICITY":0.00238713,"INCLINATION":70.0773,"RA_OF_ASC_NODE":92.4413,"ARG_OF_PERICENTER":256.1291,"MEAN_ANOMALY":103.7159,"EPHEMERIS_TYPE":0,"CLASSIFICATION_TYPE":"U","NORAD_CAT_ID":1291,"ELEMENT_SET_NO":999,"REV_AT_EPOCH":10252,"BSTAR":6.1673454e-5,"MEAN_MOTION_DOT":3.1e-7,"MEAN_MOTION_DDOT":0},{"OBJECT_NAME":"SECOR 4 (EGRS 4)","OBJECT_ID":"1965-027B","EPOCH":"2026-03-07T08:03:10.845216","MEAN_MOTION":12.92665076,"ECCENTRICITY":0.0032799,"INCLINATION":90.2533,"RA_OF_ASC_NODE":13.2377,"ARG_OF_PERICENTER":105.4202,"MEAN_ANOMALY":47.7082,"EPHEMERIS_TYPE":0,"CLASSIFICATION_TYPE":"U","NORAD_CAT_ID":1315,"ELEMENT_SET_NO":999,"REV_AT_EPOCH":87376,"BSTAR":0.00035953,"MEAN_MOTION_DOT":1.05e-6,"MEAN_MOTION_DDOT":0},{"OBJECT_NAME":"TIROS 10","OBJECT_ID":"1965-051A","EPOCH":"2026-03-07T07:00:58.830048","MEAN_MOTION":14.41587488,"ECCENTRICITY":0.0055737,"INCLINATION":98.4885,"RA_OF_ASC_NODE":186.1516,"ARG_OF_PERICENTER":26.1768,"MEAN_ANOMALY":334.2219,"EPHEMERIS_TYPE":0,"CLASSIFICATION_TYPE":"U","NORAD_CAT_ID":1430,"ELEMENT_SET_NO":999,"REV_AT_EPOCH":18123,"BSTAR":9.6064e-5,"MEAN_MOTION_DOT":2.73e-6,"MEAN_MOTION_DDOT":0},{"OBJECT_NAME":"ALOUETTE 2","OBJECT_ID":"1965-098A","EPOCH":"2026-03-07T06:37:09.004224","MEAN_MOTION":12.28236402,"ECCENTRICITY":0.1330824,"INCLINATION":79.8055,"RA_OF_ASC_NODE":3.3626,"ARG_OF_PERICENTER":79.1657,"MEAN_ANOMALY":295.5977,"EPHEMERIS_TYPE":0,"CLASSIFICATION_TYPE":"U","NORAD_CAT_ID":1804,"ELEMENT_SET_NO":999,"REV_AT_EPOCH":66676,"BSTAR":0.00036588,"MEAN_MOTION_DOT":1.137e-5,"MEAN_MOTION_DDOT":0},{"OBJECT_NAME":"OV3-3","OBJECT_ID":"1966-070A","EPOCH":"2026-03-07T14:36:39.138912","MEAN_MOTION":13.42505621,"ECCENTRICITY":0.10249662,"INCLINATION":81.3236,"RA_OF_ASC_NODE":60.4742,"ARG_OF_PERICENTER":60.8613,"MEAN_ANOMALY":309.118,"EPHEMERIS_TYPE":0,"CLASSIFICATION_TYPE":"U","NORAD_CAT_ID":2389,"ELEMENT_SET_NO":999,"REV_AT_EPOCH":58532,"BSTAR":0.00085621772,"MEAN_MOTION_DOT":0.00019082,"MEAN_MOTION_DDOT":0},{"OBJECT_NAME":"SECOR 7 (EGRS 7)","OBJECT_ID":"1966-077B","EPOCH":"2026-03-06T13:53:31.394976","MEAN_MOTION":8.59615593,"ECCENTRICITY":0.00115761,"INCLINATION":90.3271,"RA_OF_ASC_NODE":276.2548,"ARG_OF_PERICENTER":157.6293,"MEAN_ANOMALY":202.5065,"EPHEMERIS_TYPE":0,"CLASSIFICATION_TYPE":"U","NORAD_CAT_ID":2411,"ELEMENT_SET_NO":999,"REV_AT_EPOCH":86856,"BSTAR":-0.0061944055,"MEAN_MOTION_DOT":-1.1e-7,"MEAN_MOTION_DDOT":0},{"OBJECT_NAME":"ERS 15","OBJECT_ID":"1966-077C","EPOCH":"2026-03-07T13:29:49.786656","MEAN_MOTION":8.59079414,"ECCENTRICITY":0.00070485,"INCLINATION":90.3273,"RA_OF_ASC_NODE":276.0585,"ARG_OF_PERICENTER":163.9094,"MEAN_ANOMALY":196.1982,"EPHEMERIS_TYPE":0,"CLASSIFICATION_TYPE":"U","NORAD_CAT_ID":2412,"ELEMENT_SET_NO":999,"REV_AT_EPOCH":38173,"BSTAR":0,"MEAN_MOTION_DOT":2.0e-8,"MEAN_MOTION_DDOT":0},{"OBJECT_NAME":"ISIS 1","OBJECT_ID":"1969-009A","EPOCH":"2026-03-07T12:10:27.829920","MEAN_MOTION":11.30413513,"ECCENTRICITY":0.17078007,"INCLINATION":88.4545,"RA_OF_ASC_NODE":155.5467,"ARG_OF_PERICENTER":93.5639,"MEAN_ANOMALY":286.1341,"EPHEMERIS_TYPE":0,"CLASSIFICATION_TYPE":"U","NORAD_CAT_ID":3669,"ELEMENT_SET_NO":999,"REV_AT_EPOCH":34828,"BSTAR":0.00014940732,"MEAN_MOTION_DOT":2.33e-6,"MEAN_MOTION_DDOT":0},{"OBJECT_NAME":"SECOR 13 (EGRS 13)","OBJECT_ID":"1969-037B","EPOCH":"2026-03-07T14:52:21.316224","MEAN_MOTION":13.42972429,"ECCENTRICITY":0.00399858,"INCLINATION":99.6655,"RA_OF_ASC_NODE":302.4372,"ARG_OF_PERICENTER":139.8721,"MEAN_ANOMALY":249.3101,"EPHEMERIS_TYPE":0,"CLASSIFICATION_TYPE":"U","NORAD_CAT_ID":3891,"ELEMENT_SET_NO":999,"REV_AT_EPOCH":78812,"BSTAR":5.0109795e-5,"MEAN_MOTION_DOT":-1.3e-7,"MEAN_MOTION_DDOT":0},{"OBJECT_NAME":"ATS 5","OBJECT_ID":"1969-069A","EPOCH":"2026-03-07T15:18:30.104352","MEAN_MOTION":0.99487082,"ECCENTRICITY":0.00062282,"INCLINATION":0.2837,"RA_OF_ASC_NODE":212.4283,"ARG_OF_PERICENTER":69.1561,"MEAN_ANOMALY":179.7646,"EPHEMERIS_TYPE":0,"CLASSIFICATION_TYPE":"U","NORAD_CAT_ID":4068,"ELEMENT_SET_NO":999,"REV_AT_EPOCH":4531,"BSTAR":0,"MEAN_MOTION_DOT":9.0e-7,"MEAN_MOTION_DDOT":0},{"OBJECT_NAME":"OPS 7613 (P/L 4)","OBJECT_ID":"1969-082E","EPOCH":"2026-03-07T03:28:26.661792","MEAN_MOTION":13.95978677,"ECCENTRICITY":0.00233005,"INCLINATION":70.0166,"RA_OF_ASC_NODE":321.8788,"ARG_OF_PERICENTER":263.7303,"MEAN_ANOMALY":208.015,"EPHEMERIS_TYPE":0,"CLASSIFICATION_TYPE":"U","NORAD_CAT_ID":4237,"ELEMENT_SET_NO":999,"REV_AT_EPOCH":87206,"BSTAR":8.7953126e-5,"MEAN_MOTION_DOT":6.8e-7,"MEAN_MOTION_DDOT":0},{"OBJECT_NAME":"OPS 7613 (P/L 1)","OBJECT_ID":"1969-082B","EPOCH":"2026-03-07T13:54:04.188960","MEAN_MOTION":13.99167284,"ECCENTRICITY":0.0020733,"INCLINATION":70.01,"RA_OF_ASC_NODE":183.2888,"ARG_OF_PERICENTER":205.4663,"MEAN_ANOMALY":154.5424,"EPHEMERIS_TYPE":0,"CLASSIFICATION_TYPE":"U","NORAD_CAT_ID":4256,"ELEMENT_SET_NO":999,"REV_AT_EPOCH":87625,"BSTAR":0.00017265666,"MEAN_MOTION_DOT":1.97e-6,"MEAN_MOTION_DDOT":0},{"OBJECT_NAME":"SHINSEI (MS-F2)","OBJECT_ID":"1971-080A","EPOCH":"2026-03-07T14:37:59.550528","MEAN_MOTION":12.74248333,"ECCENTRICITY":0.0639721,"INCLINATION":32.0513,"RA_OF_ASC_NODE":182.6533,"ARG_OF_PERICENTER":87.4179,"MEAN_ANOMALY":279.9431,"EPHEMERIS_TYPE":0,"CLASSIFICATION_TYPE":"U","NORAD_CAT_ID":5485,"ELEMENT_SET_NO":999,"REV_AT_EPOCH":53629,"BSTAR":1.2304642e-5,"MEAN_MOTION_DOT":2.0e-7,"MEAN_MOTION_DDOT":0},{"OBJECT_NAME":"PROSPERO (BLACK ARROW)","OBJECT_ID":"1971-093A","EPOCH":"2026-03-07T08:27:13.154976","MEAN_MOTION":14.01385545,"ECCENTRICITY":0.05024318,"INCLINATION":82.0408,"RA_OF_ASC_NODE":20.1915,"ARG_OF_PERICENTER":158.9692,"MEAN_ANOMALY":203.2977,"EPHEMERIS_TYPE":0,"CLASSIFICATION_TYPE":"U","NORAD_CAT_ID":5580,"ELEMENT_SET_NO":999,"REV_AT_EPOCH":73426,"BSTAR":0.00028826949,"MEAN_MOTION_DOT":1.365e-5,"MEAN_MOTION_DDOT":0},{"OBJECT_NAME":"OPS 7898 (P/L 2)","OBJECT_ID":"1971-110C","EPOCH":"2026-03-07T14:22:46.816608","MEAN_MOTION":13.74749434,"ECCENTRICITY":0.00103395,"INCLINATION":69.9889,"RA_OF_ASC_NODE":212.5651,"ARG_OF_PERICENTER":289.3831,"MEAN_ANOMALY":70.6145,"EPHEMERIS_TYPE":0,"CLASSIFICATION_TYPE":"U","NORAD_CAT_ID":5680,"ELEMENT_SET_NO":999,"REV_AT_EPOCH":33425,"BSTAR":6.0933107e-5,"MEAN_MOTION_DOT":8.0e-8,"MEAN_MOTION_DDOT":0}]
